[{"OBJECT_NAME":"OBJECT P","OBJECT_ID":"2023-091P","EPOCH":"2026-03-09T22:51:54.228672","MEAN_MOTION":15.15656196,"ECCENTRICITY":0.00167439,"INCLINATION":97.5224,"RA_OF_ASC_NODE":125.9166,"ARG_OF_PERICENTER":108.1275,"MEAN_ANOMALY":252.1782,"EPHEMERIS_TYPE":0,"CLASSIFICATION_TYPE":"U","NORAD_CAT_ID":57179,"ELEMENT_SET_NO":999,"REV_AT_EPOCH":14875,"BSTAR":0.00031146845,"MEAN_MOTION_DOT":5.878e-5,"MEAN_MOTION_DDOT":0},{"OBJECT_NAME":"TRANSPORTER-15 OBJECT AD","OBJECT_ID":"2025-276AD","EPOCH":"2026-03-09T16:56:36.772224","MEAN_MOTION":15.20206781,"ECCENTRICITY":0.00038807,"INCLINATION":97.4241,"RA_OF_ASC_NODE":144.0136,"ARG_OF_PERICENTER":30.5762,"MEAN_ANOMALY":329.5699,"EPHEMERIS_TYPE":0,"CLASSIFICATION_TYPE":"U","NORAD_CAT_ID":66693,"ELEMENT_SET_NO":999,"REV_AT_EPOCH":1532,"BSTAR":0.00065660036,"MEAN_MOTION_DOT":0.00014178,"MEAN_MOTION_DDOT":0}]
